{
  "type": "FeatureCollection",
  "features": [
    {
      "type": "Feature",
      "properties": {
        "norad_id": 32376,
        "name": "COSMO-SKYMED 2",
        "group": "resource",
        "lat": 70.06255808439964,
        "lon": 143.3235670696455,
        "alt_km": 614.6709434000031,
        "timestamp": "2025-12-10T09:57:44.360914+00:00",
        "meta_object_name": "COSMO-SKYMED 2",
        "meta_object_id": "2007-059A",
        "meta_epoch": "2025-12-09T19:03:29.453760",
        "meta_mean_motion": 14.82161028,
        "meta_eccentricity": 0.0001536,
        "meta_inclination": 97.8812,
        "meta_ra_of_asc_node": 165.1622,
        "meta_arg_of_pericenter": 85.6208,
        "meta_mean_anomaly": 274.5181,
        "meta_ephemeris_type": 0,
        "meta_classification_type": "U",
        "meta_norad_cat_id": 32376,
        "meta_element_set_no": 999,
        "meta_rev_at_epoch": 97394,
        "meta_bstar": 0.00013537,
        "meta_mean_motion_dot": 1.026e-05,
        "meta_mean_motion_ddot": 0,
        "tle_line1": "1 32376U 07059A   25343.79409090  .00001026  00000+0  13537-3 0  9997",
        "tle_line2": "2 32376  97.8812 165.1622 0001536  85.6208 274.5181 14.82161028973948"
      },
      "geometry": {
        "type": "Point",
        "coordinates": [
          143.3235670696455,
          70.06255808439964
        ]
      }
    },
    {
      "type": "Feature",
      "properties": {
        "norad_id": 32382,
        "name": "RADARSAT-2",
        "group": "resource",
        "lat": 79.21655091735859,
        "lon": -138.5272633753639,
        "alt_km": 783.6037578847554,
        "timestamp": "2025-12-10T09:57:44.360924+00:00",
        "meta_object_name": "RADARSAT-2",
        "meta_object_id": "2007-061A",
        "meta_epoch": "2025-12-09T23:26:12.483168",
        "meta_mean_motion": 14.29981197,
        "meta_eccentricity": 0.0001136,
        "meta_inclination": 98.5796,
        "meta_ra_of_asc_node": 348.6068,
        "meta_arg_of_pericenter": 94.4252,
        "meta_mean_anomaly": 265.706,
        "meta_ephemeris_type": 0,
        "meta_classification_type": "U",
        "meta_norad_cat_id": 32382,
        "meta_element_set_no": 999,
        "meta_rev_at_epoch": 93891,
        "meta_bstar": 6.0045e-05,
        "meta_mean_motion_dot": 1.11e-06,
        "meta_mean_motion_ddot": 0,
        "tle_line1": "1 32382U 07061A   25343.97653337  .00000111  00000+0  60045-4 0  9993",
        "tle_line2": "2 32382  98.5796 348.6068 0001136  94.4252 265.7060 14.29981197938913"
      },
      "geometry": {
        "type": "Point",
        "coordinates": [
          -138.5272633753639,
          79.21655091735859
        ]
      }
    },
    {
      "type": "Feature",
      "properties": {
        "norad_id": 32783,
        "name": "CARTOSAT-2A",
        "group": "resource",
        "lat": -57.475831474351466,
        "lon": -158.09093809660826,
        "alt_km": 645.6570320245792,
        "timestamp": "2025-12-10T09:57:44.360935+00:00",
        "meta_object_name": "CARTOSAT-2A",
        "meta_object_id": "2008-021A",
        "meta_epoch": "2025-12-10T04:00:59.541984",
        "meta_mean_motion": 14.78929166,
        "meta_eccentricity": 0.0012109,
        "meta_inclination": 97.7929,
        "meta_ra_of_asc_node": 34.0709,
        "meta_arg_of_pericenter": 12.6418,
        "meta_mean_anomaly": 347.5095,
        "meta_ephemeris_type": 0,
        "meta_classification_type": "U",
        "meta_norad_cat_id": 32783,
        "meta_element_set_no": 999,
        "meta_rev_at_epoch": 95086,
        "meta_bstar": 0.00018438,
        "meta_mean_motion_dot": 1.311e-05,
        "meta_mean_motion_ddot": 0,
        "tle_line1": "1 32783U 08021A   25344.16735581  .00001311  00000+0  18438-3 0  9990",
        "tle_line2": "2 32783  97.7929  34.0709 0012109  12.6418 347.5095 14.78929166950860"
      },
      "geometry": {
        "type": "Point",
        "coordinates": [
          -158.09093809660826,
          -57.475831474351466
        ]
      }
    },
    {
      "type": "Feature",
      "properties": {
        "norad_id": 33320,
        "name": "HUANJING 1A (HJ-1A)",
        "group": "resource",
        "lat": 65.43785769724497,
        "lon": -44.301733309505316,
        "alt_km": 599.3577002621241,
        "timestamp": "2025-12-10T09:57:44.360946+00:00",
        "meta_object_name": "HUANJING 1A (HJ-1A)",
        "meta_object_id": "2008-041A",
        "meta_epoch": "2025-12-10T04:48:27.363744",
        "meta_mean_motion": 14.83382341,
        "meta_eccentricity": 0.0020373,
        "meta_inclination": 97.6542,
        "meta_ra_of_asc_node": 332.6049,
        "meta_arg_of_pericenter": 42.4277,
        "meta_mean_anomaly": 317.8508,
        "meta_ephemeris_type": 0,
        "meta_classification_type": "U",
        "meta_norad_cat_id": 33320,
        "meta_element_set_no": 999,
        "meta_rev_at_epoch": 93038,
        "meta_bstar": 0.00035723,
        "meta_mean_motion_dot": 2.889e-05,
        "meta_mean_motion_ddot": 0,
        "tle_line1": "1 33320U 08041A   25344.20031671  .00002889  00000+0  35723-3 0  9991",
        "tle_line2": "2 33320  97.6542 332.6049 0020373  42.4277 317.8508 14.83382341930386"
      },
      "geometry": {
        "type": "Point",
        "coordinates": [
          -44.301733309505316,
          65.43785769724497
        ]
      }
    },
    {
      "type": "Feature",
      "properties": {
        "norad_id": 33321,
        "name": "HUANJING 1B (HJ-1B)",
        "group": "resource",
        "lat": -66.61426955612774,
        "lon": -5.403097817285986,
        "alt_km": 651.0746603441194,
        "timestamp": "2025-12-10T09:57:44.360963+00:00",
        "meta_object_name": "HUANJING 1B (HJ-1B)",
        "meta_object_id": "2008-041B",
        "meta_epoch": "2025-12-10T03:47:26.275200",
        "meta_mean_motion": 14.82811819,
        "meta_eccentricity": 0.003829,
        "meta_inclination": 97.64,
        "meta_ra_of_asc_node": 336.2679,
        "meta_arg_of_pericenter": 83.8034,
        "meta_mean_anomaly": 276.754,
        "meta_ephemeris_type": 0,
        "meta_classification_type": "U",
        "meta_norad_cat_id": 33321,
        "meta_element_set_no": 999,
        "meta_rev_at_epoch": 93039,
        "meta_bstar": 0.0002809,
        "meta_mean_motion_dot": 2.25e-05,
        "meta_mean_motion_ddot": 0,
        "tle_line1": "1 33321U 08041B   25344.15794300  .00002250  00000+0  28090-3 0  9992",
        "tle_line2": "2 33321  97.6400 336.2679 0038290  83.8034 276.7540 14.82811819930392"
      },
      "geometry": {
        "type": "Point",
        "coordinates": [
          -5.403097817285986,
          -66.61426955612774
        ]
      }
    },
    {
      "type": "Feature",
      "properties": {
        "norad_id": 33331,
        "name": "GEOEYE 1",
        "group": "resource",
        "lat": 67.53865701480653,
        "lon": 35.50779274572682,
        "alt_km": 672.6422820253138,
        "timestamp": "2025-12-10T09:57:44.360985+00:00",
        "meta_object_name": "GEOEYE 1",
        "meta_object_id": "2008-042A",
        "meta_epoch": "2025-12-10T04:43:48.742752",
        "meta_mean_motion": 14.64806955,
        "meta_eccentricity": 0.0002756,
        "meta_inclination": 98.1255,
        "meta_ra_of_asc_node": 55.5096,
        "meta_arg_of_pericenter": 287.8584,
        "meta_mean_anomaly": 72.2318,
        "meta_ephemeris_type": 0,
        "meta_classification_type": "U",
        "meta_norad_cat_id": 33331,
        "meta_element_set_no": 999,
        "meta_rev_at_epoch": 92248,
        "meta_bstar": 0.00018726,
        "meta_mean_motion_dot": 9.51e-06,
        "meta_mean_motion_ddot": 0,
        "tle_line1": "1 33331U 08042A   25344.19709193  .00000951  00000+0  18726-3 0  9995",
        "tle_line2": "2 33331  98.1255  55.5096 0002756 287.8584  72.2318 14.64806955922483"
      },
      "geometry": {
        "type": "Point",
        "coordinates": [
          35.50779274572682,
          67.53865701480653
        ]
      }
    },
    {
      "type": "Feature",
      "properties": {
        "norad_id": 33396,
        "name": "THEOS",
        "group": "resource",
        "lat": -59.53806434390399,
        "lon": 57.458835337122814,
        "alt_km": 832.8574239823874,
        "timestamp": "2025-12-10T09:57:44.360997+00:00",
        "meta_object_name": "THEOS",
        "meta_object_id": "2008-049A",
        "meta_epoch": "2025-12-10T03:29:01.062816",
        "meta_mean_motion": 14.20096366,
        "meta_eccentricity": 0.0001108,
        "meta_inclination": 98.5866,
        "meta_ra_of_asc_node": 42.311,
        "meta_arg_of_pericenter": 96.1594,
        "meta_mean_anomaly": 263.9709,
        "meta_ephemeris_type": 0,
        "meta_classification_type": "U",
        "meta_norad_cat_id": 33396,
        "meta_element_set_no": 999,
        "meta_rev_at_epoch": 89113,
        "meta_bstar": 0.00016507,
        "meta_mean_motion_dot": 3.09e-06,
        "meta_mean_motion_ddot": 0,
        "tle_line1": "1 33396U 08049A   25344.14515119  .00000309  00000+0  16507-3 0  9993",
        "tle_line2": "2 33396  98.5866  42.3110 0001108  96.1594 263.9709 14.20096366891138"
      },
      "geometry": {
        "type": "Point",
        "coordinates": [
          57.458835337122814,
          -59.53806434390399
        ]
      }
    }
  ]
}